[
    {
        "CCSDS_OMM_VERS": "3.0",
        "COMMENT": "GENERATED VIA SPACE-TRACK.ORG API",
        "CREATION_DATE": "2025-02-28T03:00:46",
        "ORIGINATOR": "18 SPCS",
        "OBJECT_NAME": "COSMOS 2466 (GLONASS)",
        "OBJECT_ID": "2010-041A",
        "CENTER_NAME": "EARTH",
        "REF_FRAME": "TEME",
        "TIME_SYSTEM": "UTC",
        "MEAN_ELEMENT_THEORY": "SGP4",
        "EPOCH": "2025-02-27T15:54:55.193184",
        "MEAN_MOTION": "2.13112939",
        "ECCENTRICITY": "0.00170670",
        "INCLINATION": "63.8948",
        "RA_OF_ASC_NODE": "206.3439",
        "ARG_OF_PERICENTER": "169.9757",
        "MEAN_ANOMALY": "187.1496",
        "EPHEMERIS_TYPE": "0",
        "CLASSIFICATION_TYPE": "U",
        "NORAD_CAT_ID": "37137",
        "ELEMENT_SET_NO": "999",
        "REV_AT_EPOCH": "11272",
        "BSTAR": "0.00000000000000",
        "MEAN_MOTION_DOT": "0.00000041",
        "MEAN_MOTION_DDOT": "0.0000000000000",
        "SEMIMAJOR_AXIS": "25507.152",
        "PERIOD": "675.698",
        "APOAPSIS": "19172.550",
        "PERIAPSIS": "19085.483",
        "OBJECT_TYPE": "PAYLOAD",
        "RCS_SIZE": "LARGE",
        "COUNTRY_CODE": "CIS",
        "LAUNCH_DATE": "2010-09-02",
        "SITE": "TTMTR",
        "DECAY_DATE": null,
        "FILE": "4654471",
        "GP_ID": "281870385",
        "TLE_LINE0": "0 COSMOS 2466 (GLONASS)",
        "TLE_LINE1": "1 37137U 10041A   25058.66313881  .00000041  00000-0  00000-0 0  9998",
        "TLE_LINE2": "2 37137  63.8948 206.3439 0017067 169.9757 187.1496  2.13112939112723"
    }
]